{"type": "FeatureCollection", "features": [ {"type": "Feature", "properties": {"norad_id": 32289, "name": "YAOGAN-3", "group": "resource", "lat": -5.840986906889068, "lon": -157.48229794188512, "alt_km": 602.289852381271, "timestamp": "2025-12-22T18:58:53.077303+00:00", "meta": {"OBJECT_NAME": "YAOGAN-3", "OBJECT_ID": "2007-055A", "EPOCH": "2025-12-22T06:52:02.673984", "MEAN_MOTION": 14.89897513, "ECCENTRICITY": 0.00010848, "INCLINATION": 97.8351, "RA_OF_ASC_NODE": 22.8247, "ARG_OF_PERICENTER": 76.1938, "MEAN_ANOMALY": 283.9401, "EPHEMERIS_TYPE": 0, "CLASSIFICATION_TYPE": "U", "NORAD_CAT_ID": 32289, "ELEMENT_SET_NO": 999, "REV_AT_EPOCH": 97951, "BSTAR": 0.00018249873, "MEAN_MOTION_DOT": 1.7e-05, "MEAN_MOTION_DDOT": 0}, "tle": {"line1": "1 32289U 07055A   25356.28614206  .00001700  00000+0  18250-3 0  9997", "line2": "2 32289  97.8351  22.8247 0001084  76.1938 283.9401 14.89897513979514"}}, "geometry": {"type": "Point", "coordinates": [-157.48229794188512, -5.840986906889068]}}, {"type": "Feature", "properties": {"norad_id": 32376, "name": "COSMO-SKYMED 2", "group": "resource", "lat": -5.682973130100503, "lon": -2.8265454907297722, "alt_km": 626.4991125139568, "timestamp": "2025-12-22T18:58:53.077314+00:00", "meta": {"OBJECT_NAME": "COSMO-SKYMED 2", "OBJECT_ID": "2007-059A", "EPOCH": "2025-12-22T06:48:17.689248", "MEAN_MOTION": 14.82153929, "ECCENTRICITY": 0.00013284, "INCLINATION": 97.8804, "RA_OF_ASC_NODE": 177.4637, "ARG_OF_PERICENTER": 82.7901, "MEAN_ANOMALY": 277.3463, "EPHEMERIS_TYPE": 0, "CLASSIFICATION_TYPE": "U", "NORAD_CAT_ID": 32376, "ELEMENT_SET_NO": 999, "REV_AT_EPOCH": 97579, "BSTAR": 7.1943398e-05, "MEAN_MOTION_DOT": 5.21e-06, "MEAN_MOTION_DDOT": 0}, "tle": {"line1": "1 32376U 07059A   25356.28353807  .00000521  00000+0  71943-4 0  9994", "line2": "2 32376  97.8804 177.4637 0001328  82.7901 277.3463 14.82153929975798"}}, "geometry": {"type": "Point", "coordinates": [-2.8265454907297722, -5.682973130100503]}}, {"type": "Feature", "properties": {"norad_id": 32382, "name": "RADARSAT-2", "group": "resource", "lat": 49.16823616023221, "lon": -8.82588311724569, "alt_km": 786.6172787197893, "timestamp": "2025-12-22T18:58:53.077325+00:00", "meta": {"OBJECT_NAME": "RADARSAT-2", "OBJECT_ID": "2007-061A", "EPOCH": "2025-12-22T06:59:37.264992", "MEAN_MOTION": 14.29984503, "ECCENTRICITY": 0.00011343, "INCLINATION": 98.579, "RA_OF_ASC_NODE": 0.7426, "ARG_OF_PERICENTER": 84.5816, "MEAN_ANOMALY": 275.5495, "EPHEMERIS_TYPE": 0, "CLASSIFICATION_TYPE": "U", "NORAD_CAT_ID": 32382, "ELEMENT_SET_NO": 999, "REV_AT_EPOCH": 94067, "BSTAR": 8.1553384e-05, "MEAN_MOTION_DOT": 1.67e-06, "MEAN_MOTION_DDOT": 0}, "tle": {"line1": "1 32382U 07061A   25356.29140353  .00000167  00000+0  81553-4 0  9999", "line2": "2 32382  98.5790   0.7426 0001134  84.5816 275.5495 14.29984503940676"}}, "geometry": {"type": "Point", "coordinates": [-8.82588311724569, 49.16823616023221]}}, {"type": "Feature", "properties": {"norad_id": 32783, "name": "CARTOSAT-2A", "group": "resource", "lat": -29.033429669085347, "lon": -138.05877456251707, "alt_km": 642.7598000082298, "timestamp": "2025-12-22T18:58:53.077337+00:00", "meta": {"OBJECT_NAME": "CARTOSAT-2A", "OBJECT_ID": "2008-021A", "EPOCH": "2025-12-22T06:40:16.183776", "MEAN_MOTION": 14.78946816, "ECCENTRICITY": 0.00111525, "INCLINATION": 97.7918, "RA_OF_ASC_NODE": 45.8034, "ARG_OF_PERICENTER": 333.3477, "MEAN_ANOMALY": 26.716, "EPHEMERIS_TYPE": 0, "CLASSIFICATION_TYPE": "U", "NORAD_CAT_ID": 32783, "ELEMENT_SET_NO": 999, "REV_AT_EPOCH": 95265, "BSTAR": -6.345718e-05, "MEAN_MOTION_DOT": -5.19e-06, "MEAN_MOTION_DDOT": 0}, "tle": {"line1": "1 32783U 08021A   25356.27796509 -.00000519  00000+0 -63457-4 0  9995", "line2": "2 32783  97.7918  45.8034 0011152 333.3477  26.7160 14.78946816952653"}}, "geometry": {"type": "Point", "coordinates": [-138.05877456251707, -29.033429669085347]}}, {"type": "Feature", "properties": {"norad_id": 33320, "name": "HUANJING 1A (HJ-1A)", "group": "resource", "lat": -55.07565633304035, "lon": 153.56539655144817, "alt_km": 633.7385846043899, "timestamp": "2025-12-22T18:58:53.077348+00:00", "meta": {"OBJECT_NAME": "HUANJING 1A (HJ-1A)", "OBJECT_ID": "2008-041A", "EPOCH": "2025-12-22T06:35:20.370912", "MEAN_MOTION": 14.8342357, "ECCENTRICITY": 0.00194365, "INCLINATION": 97.654, "RA_OF_ASC_NODE": 344.1749, "ARG_OF_PERICENTER": 4.3363, "MEAN_ANOMALY": 355.8016, "EPHEMERIS_TYPE": 0, "CLASSIFICATION_TYPE": "U", "NORAD_CAT_ID": 33320, "ELEMENT_SET_NO": 999, "REV_AT_EPOCH": 93217, "BSTAR": 0.00022554838, "MEAN_MOTION_DOT": 1.806e-05, "MEAN_MOTION_DDOT": 0}, "tle": {"line1": "1 33320U 08041A   25356.27454133  .00001806  00000+0  22555-3 0  9990", "line2": "2 33320  97.6540 344.1749 0019436   4.3363 355.8016 14.83423570932175"}}, "geometry": {"type": "Point", "coordinates": [153.56539655144817, -55.07565633304035]}}, {"type": "Feature", "properties": {"norad_id": 33321, "name": "HUANJING 1B (HJ-1B)", "group": "resource", "lat": 74.44658798849558, "lon": -40.492551849982306, "alt_km": 590.8494197878317, "timestamp": "2025-12-22T18:58:53.077359+00:00", "meta": {"OBJECT_NAME": "HUANJING 1B (HJ-1B)", "OBJECT_ID": "2008-041B", "EPOCH": "2025-12-22T05:41:04.117344", "MEAN_MOTION": 14.82844059, "ECCENTRICITY": 0.00379605, "INCLINATION": 97.6398, "RA_OF_ASC_NODE": 347.8109, "ARG_OF_PERICENTER": 45.6711, "MEAN_ANOMALY": 314.7604, "EPHEMERIS_TYPE": 0, "CLASSIFICATION_TYPE": "U", "NORAD_CAT_ID": 33321, "ELEMENT_SET_NO": 999, "REV_AT_EPOCH": 93218, "BSTAR": 0.00011606898, "MEAN_MOTION_DOT": 9e-06, "MEAN_MOTION_DDOT": 0}, "tle": {"line1": "1 33321U 08041B   25356.23685321  .00000900  00000+0  11607-3 0  9992", "line2": "2 33321  97.6398 347.8109 0037960  45.6711 314.7604 14.82844059932180"}}, "geometry": {"type": "Point", "coordinates": [-40.492551849982306, 74.44658798849558]}}, {"type": "Feature", "properties": {"norad_id": 33331, "name": "GEOEYE 1", "group": "resource", "lat": 50.521751428255506, "lon": -102.0689885778609, "alt_km": 674.1524625778329, "timestamp": "2025-12-22T18:58:53.077370+00:00", "meta": {"OBJECT_NAME": "GEOEYE 1", "OBJECT_ID": "2008-042A", "EPOCH": "2025-12-22T05:16:45.712128", "MEAN_MOTION": 14.64712591, "ECCENTRICITY": 0.00028801, "INCLINATION": 98.124, "RA_OF_ASC_NODE": 67.3809, "ARG_OF_PERICENTER": 243.4794, "MEAN_ANOMALY": 116.6113, "EPHEMERIS_TYPE": 0, "CLASSIFICATION_TYPE": "U", "NORAD_CAT_ID": 33331, "ELEMENT_SET_NO": 999, "REV_AT_EPOCH": 92424, "BSTAR": 0.0001156156, "MEAN_MOTION_DOT": 5.68e-06, "MEAN_MOTION_DDOT": 0}, "tle": {"line1": "1 33331U 08042A   25356.21997352  .00000568  00000+0  11562-3 0  9992", "line2": "2 33331  98.1240  67.3809 0002880 243.4794 116.6113 14.64712591924243"}}, "geometry": {"type": "Point", "coordinates": [-102.0689885778609, 50.521751428255506]}}, {"type": "Feature", "properties": {"norad_id": 33396, "name": "THEOS", "group": "resource", "lat": 6.771572722904234, "lon": -124.38825088242136, "alt_km": 826.8693341764183, "timestamp": "2025-12-22T18:58:53.077381+00:00", "meta": {"OBJECT_NAME": "THEOS", "OBJECT_ID": "2008-049A", "EPOCH": "2025-12-22T06:19:56.817984", "MEAN_MOTION": 14.20097968, "ECCENTRICITY": 0.00012082, "INCLINATION": 98.5857, "RA_OF_ASC_NODE": 54.0725, "ARG_OF_PERICENTER": 94.2321, "MEAN_ANOMALY": 265.8994, "EPHEMERIS_TYPE": 0, "CLASSIFICATION_TYPE": "U", "NORAD_CAT_ID": 33396, "ELEMENT_SET_NO": 999, "REV_AT_EPOCH": 89285, "BSTAR": -2.8730201e-05, "MEAN_MOTION_DOT": -1.04e-06, "MEAN_MOTION_DDOT": 0}, "tle": {"line1": "1 33396U 08049A   25356.26385206 -.00000104  00000+0 -28730-4 0  9998", "line2": "2 33396  98.5857  54.0725 0001208  94.2321 265.8994 14.20097968892854"}}, "geometry": {"type": "Point", "coordinates": [-124.38825088242136, 6.771572722904234]}}, {"type": "Feature", "properties": {"norad_id": 33412, "name": "COSMO-SKYMED 3", "group": "resource", "lat": 75.67582514222208, "lon": 60.03809371604367, "alt_km": 533.4934348289389, "timestamp": "2025-12-22T18:58:53.077391+00:00", "meta": {"OBJECT_NAME": "COSMO-SKYMED 3", "OBJECT_ID": "2008-054A", "EPOCH": "2025-12-22T07:21:48.572352", "MEAN_MOTION": 15.05431896, "ECCENTRICITY": 0.00170473, "INCLINATION": 97.846, "RA_OF_ASC_NODE": 206.86, "ARG_OF_PERICENTER": 140.0927, "MEAN_ANOMALY": 220.1555, "EPHEMERIS_TYPE": 0, "CLASSIFICATION_TYPE": "U", "NORAD_CAT_ID": 33412, "ELEMENT_SET_NO": 999, "REV_AT_EPOCH": 93031, "BSTAR": 0.00019894107, "MEAN_MOTION_DOT": 2.799e-05, "MEAN_MOTION_DDOT": 0}, "tle": {"line1": "1 33412U 08054A   25356.30681218  .00002799  00000+0  19894-3 0  9990", "line2": "2 33412  97.8460 206.8600 0017047 140.0927 220.1555 15.05431896930311"}}, "geometry": {"type": "Point", "coordinates": [60.03809371604367, 75.67582514222208]}}, {"type": "Feature", "properties": {"norad_id": 33446, "name": "YAOGAN-4", "group": "resource", "lat": -16.717070878879586, "lon": -70.81176859916654, "alt_km": 620.4837934813531, "timestamp": "2025-12-22T18:58:53.077402+00:00", "meta": {"OBJECT_NAME": "YAOGAN-4", "OBJECT_ID": "2008-061A", "EPOCH": "2025-12-22T06:06:00.446976", "MEAN_MOTION": 14.82709029, "ECCENTRICITY": 0.00130575, "INCLINATION": 97.9196, "RA_OF_ASC_NODE": 286.2606, "ARG_OF_PERICENTER": 289.7088, "MEAN_ANOMALY": 70.2716, "EPHEMERIS_TYPE": 0, "CLASSIFICATION_TYPE": "U", "NORAD_CAT_ID": 33446, "ELEMENT_SET_NO": 999, "REV_AT_EPOCH": 91944, "BSTAR": 0.00016517331, "MEAN_MOTION_DOT": 1.281e-05, "MEAN_MOTION_DDOT": 0}, "tle": {"line1": "1 33446U 08061A   25356.25417184  .00001281  00000+0  16517-3 0  9992", "line2": "2 33446  97.9196 286.2606 0013057 289.7088  70.2716 14.82709029919443"}}, "geometry": {"type": "Point", "coordinates": [-70.81176859916654, -16.717070878879586]}}]}